{"type": "FeatureCollection", "features": [{"type": "Feature", "geometry": {"type": "Polygon", "coordinates": [[[-49.9725, -22.9585], [-49.9705, -22.9628], [-49.9693, -22.9645], [-49.9663, -22.9668], [-49.9606, -22.9706], [-49.9585, -22.9731], [-49.9565, -22.9764], [-49.9545, -22.9784], [-49.951, -22.9797], [-49.9401, -22.9826], [-49.9371, -22.9829], [-49.9352, -22.9824], [-49.9326, -22.9825], [-49.9308, -22.983], [-49.9262, -22.9853], [-49.9206, -22.99], [-49.9184, -22.9908], [-49.914, -22.9904], [-49.9119, -22.9917], [-49.9084, -22.9956], [-49.9047, -22.9981], [-49.9017, -22.9993], [-49.9004, -23.0004], [-49.8996, -23.002], [-49.9002, -23.0053], [-49.9015, -23.0075], [-49.9033, -23.0091], [-49.9079, -23.0118], [-49.9093, -23.0136], [-49.9121, -23.0213], [-49.9127, -23.0223], [-49.9132, -23.026], [-49.9134, -23.0301], [-49.9159, -23.0348], [-49.9163, -23.0364], [-49.9157, -23.0385], [-49.9143, -23.0412], [-49.9135, -23.0443], [-49.9126, -23.0465], [-49.9116, -23.0511], [-49.9074, -23.0531], [-49.9014, -23.0534], [-49.8992, -23.054], [-49.8937, -23.0577], [-49.8907, -23.0604], [-49.8891, -23.0631], [-49.8868, -23.0647], [-49.8839, -23.0648], [-49.8826, -23.0638], [-49.8805, -23.0594], [-49.8791, -23.0597], [-49.878, -23.0607], [-49.8732, -23.069], [-49.8713, -23.0704], [-49.8674, -23.0717], [-49.8616, -23.0708], [-49.8579, -23.071], [-49.8527, -23.0732], [-49.8506, -23.0733], [-49.845, -23.0713], [-49.8414, -23.0705], [-49.8384, -23.0687], [-49.8354, -23.0673], [-49.8337, -23.0659], [-49.8346, -23.0644], [-49.8343, -23.0621], [-49.8326, -23.0602], [-49.8328, -23.0576], [-49.8345, -23.0556], [-49.8344, -23.0537], [-49.8352, -23.0506], [-49.8351, -23.0488], [-49.836, -23.0471], [-49.8372, -23.046], [-49.8359, -23.0438], [-49.8358, -23.0421], [-49.8336, -23.0402], [-49.8327, -23.0381], [-49.8328, -23.0365], [-49.8291, -23.0327], [-49.8277, -23.0292], [-49.8276, -23.0266], [-49.8279, -23.0252], [-49.8274, -23.0239], [-49.8252, -23.0223], [-49.8243, -23.0194], [-49.8229, -23.0177], [-49.8207, -23.0164], [-49.8167, -23.0133], [-49.8157, -23.013], [-49.8153, -23.0114], [-49.8152, -23.0068], [-49.814, -23.0053], [-49.8088, -23.0038], [-49.8071, -23.0035], [-49.8065, -23.0019], [-49.8052, -23.0002], [-49.8056, -22.9976], [-49.8055, -22.9955], [-49.8006, -22.9895], [-49.7997, -22.9868], [-49.7975, -22.9816], [-49.7951, -22.9776], [-49.795, -22.9754], [-49.7972, -22.9736], [-49.7973, -22.9722], [-49.7932, -22.9673], [-49.7896, -22.9681], [-49.7881, -22.9699], [-49.7846, -22.9709], [-49.7824, -22.9726], [-49.7797, -22.9732], [-49.7763, -22.9722], [-49.7738, -22.9733], [-49.7732, -22.9744], [-49.7734, -22.9773], [-49.7728, -22.9778], [-49.7709, -22.9773], [-49.7706, -22.9749], [-49.7668, -22.974], [-49.7654, -22.9725], [-49.7651, -22.9708], [-49.7634, -22.9699], [-49.7637, -22.9673], [-49.7638, -22.962], [-49.763, -22.9604], [-49.7628, -22.9483], [-49.7627, -22.944], [-49.7639, -22.9411], [-49.763, -22.9367], [-49.7633, -22.9325], [-49.7656, -22.9283], [-49.7652, -22.9261], [-49.7641, -22.9232], [-49.7638, -22.9214], [-49.763, -22.908], [-49.7627, -22.8899], [-49.7636, -22.8899], [-49.7658, -22.8913], [-49.7676, -22.8916], [-49.7707, -22.8909], [-49.7745, -22.8893], [-49.7761, -22.8836], [-49.7773, -22.8807], [-49.7767, -22.8778], [-49.7785, -22.8768], [-49.7795, -22.8773], [-49.7809, -22.8783], [-49.7824, -22.876], [-49.7824, -22.8746], [-49.7864, -22.8723], [-49.8144, -22.855], [-49.817, -22.8549], [-49.8188, -22.8567], [-49.8201, -22.8574], [-49.8351, -22.8529], [-49.8372, -22.8528], [-49.8392, -22.8522], [-49.8416, -22.8497], [-49.8452, -22.8496], [-49.8476, -22.8456], [-49.8504, -22.8447], [-49.8572, -22.8459], [-49.8602, -22.8454], [-49.8633, -22.8444], [-49.8663, -22.8446], [-49.8699, -22.8442], [-49.8726, -22.843], [-49.8777, -22.8402], [-49.8805, -22.8391], [-49.8844, -22.8382], [-49.8839, -22.8428], [-49.8842, -22.8451], [-49.8858, -22.8475], [-49.8887, -22.8498], [-49.8894, -22.8521], [-49.8895, -22.8564], [-49.8892, -22.8593], [-49.8887, -22.8601], [-49.886, -22.8624], [-49.884, -22.867], [-49.8813, -22.8715], [-49.8791, -22.8734], [-49.8783, -22.8745], [-49.8785, -22.8761], [-49.8842, -22.8803], [-49.8879, -22.8824], [-49.8891, -22.8845], [-49.8882, -22.8884], [-49.886, -22.8926], [-49.8857, -22.8977], [-49.8862, -22.9038], [-49.8876, -22.9072], [-49.8907, -22.9124], [-49.8919, -22.9141], [-49.8947, -22.9171], [-49.8959, -22.9192], [-49.8978, -22.9203], [-49.9038, -22.9206], [-49.9045, -22.9208], [-49.9067, -22.9232], [-49.9081, -22.9235], [-49.9106, -22.9228], [-49.9118, -22.923], [-49.9181, -22.9291], [-49.9207, -22.9307], [-49.924, -22.9313], [-49.9265, -22.9305], [-49.9294, -22.9285], [-49.9306, -22.9284], [-49.9333, -22.9299], [-49.9373, -22.9335], [-49.9407, -22.9377], [-49.9445, -22.946], [-49.9459, -22.9516], [-49.9468, -22.9527], [-49.9523, -22.9563], [-49.9571, -22.9571], [-49.96, -22.9599], [-49.9617, -22.9607], [-49.9631, -22.9607], [-49.9667, -22.9595], [-49.9693, -22.9595], [-49.9725, -22.9585]]]}, "properties": {"codarea": "3534708"}}]}